     2.10           N: GNSS NAV DATA    E: Galileo          RINEX VERSION / TYPE
RTKCONV 2.4.2                           20240206 104953 UTC PGM / RUN BY / DATE 
log: C:\Users\adminlocal\Desktop\verniquet\verniquet\micro  COMMENT             
format: u-blox                                              COMMENT             
                                                            END OF HEADER       
E11 2024  2  6 19 10  0  .325996609172E-02 -.168398628375E-10 -.346944695195E-17
      .190000000000E+02  .682812500000E+02  .275940065440E-08  .281327448703E+00
      .323913991451E-05  .368810142390E-03 -.130757689476E-05  .544060953140E+04
      .241800000000E+06  .651925802231E-07 -.224309456432E+01 -.391155481339E-07
      .996898577719E+00  .381656250000E+03  .327332885380E+00 -.579559855280E-08
      .632169189527E-10  .100000000000E+01  .230000000000E+04  .000000000000E+00
      .327670000000E+05  .000000000000E+00 -.128056854010E-07 -.139698386192E-07
      .242929000000E+06  .000000000000E+00
E12 2024  2  6 19 20  0 -.895121484064E-03 -.161293201018E-10  .000000000000E+00
      .200000000000E+02  .734375000000E+02  .271582741083E-08  .165552033205E+01
      .338070094585E-05  .433498877101E-03 -.118091702461E-05  .544061469269E+04
      .242400000000E+06  .931322574615E-08 -.224309780175E+01  .633299350739E-07
      .996910943765E+00  .381062500000E+03 -.170580592909E+00 -.574881088962E-08
      .133219834855E-09  .100000000000E+01  .230000000000E+04  .000000000000E+00
      .327670000000E+05  .000000000000E+00 -.107102096081E-07 -.107102096081E-07
      .243079000000E+06  .000000000000E+00
E10 2024  2  6 19 20  0 -.599932158366E-03 -.288480350719E-11  .000000000000E+00
      .200000000000E+02  .698750000000E+02  .267439711366E-08  .559603498989E+00
      .327266752720E-05  .270989257842E-04 -.827014446259E-06  .544061450768E+04
      .242400000000E+06  .745058059692E-07 -.224630536375E+01  .447034835815E-07
      .999866193355E+00  .374031250000E+03  .550335463841E+00 -.575916846391E-08
      .117862052285E-09  .100000000000E+01  .230000000000E+04  .000000000000E+00
      .327670000000E+05  .000000000000E+00  .698491930962E-09  .139698386192E-08
      .243079000000E+06  .000000000000E+00
E11 2024  2  6 19 20  0  .325995596359E-02 -.168256519828E-10 -.346944695195E-17
      .200000000000E+02  .699687500000E+02  .275368613065E-08  .354959288702E+00
      .331923365593E-05  .369021086954E-03 -.119768083096E-05  .544061022377E+04
      .242400000000E+06  .763684511185E-07 -.224309807093E+01 -.316649675369E-07
      .996898574793E+00  .379406250000E+03  .328086610033E+00 -.579845581467E-08
      .700029159024E-10  .100000000000E+01  .230000000000E+04  .000000000000E+00
      .327670000000E+05  .000000000000E+00 -.128056854010E-07 -.139698386192E-07
      .243079000000E+06  .000000000000E+00
E24 2024  2  6 19 20  0 -.583769753575E-03 -.209752215596E-10  .000000000000E+00
      .200000000000E+02  .210312500000E+02  .323227749447E-08  .192380984668E+01
      .100582838058E-05  .793348997831E-03  .869296491146E-05  .544062118721E+04
      .242400000000E+06 -.279396772385E-07  .195181519552E+01  .428408384323E-07
      .964382854943E+00  .157093750000E+03  .882103286320E+00 -.541451125041E-08
     -.618597195628E-09  .100000000000E+01  .230000000000E+04  .000000000000E+00
      .327670000000E+05  .000000000000E+00 -.349245965481E-08 -.442378222942E-08
      .243079000000E+06  .000000000000E+00
E18 2024  2  6 19 20  0  .296907674056E-03  .433999503002E-10  .000000000000E+00
      .200000000000E+02  .426250000000E+02  .414838708269E-08  .352171233094E+00
      .217929482460E-05  .160890596337E+00  .552460551262E-05  .528933500671E+04
      .242400000000E+06  .321678817272E-05  .305003615528E+01  .281445682049E-05
      .869308819847E+00  .192375000000E+03  .255228548514E+01 -.490520432145E-08
     -.153399246837E-08  .100000000000E+01  .230000000000E+04  .000000000000E+00
      .327670000000E+05  .130000000000E+03 -.116415321827E-08 -.162981450558E-08
      .243109000000E+06  .000000000000E+00
